H1 CPF 01  gfz 2022 05 28 12  6482 terrasarx 
H2 0702601  6201 31698    2022 05 28 12 59 42 2022 06 02 00 00 42   120 1 1  0 0 0
H9
10 0 59730  52542.000000  0   -3905567.035  -4067984.234  -3964606.702
10 0 59730  52662.000000  0   -3648975.028  -3528719.462  -4664712.227
10 0 59730  52782.000000  0   -3319012.578  -2933236.843  -5283139.928
10 0 59730  52902.000000  0   -2920594.876  -2293184.104  -5809157.436
10 0 59730  53022.000000  0   -2460018.182  -1620859.323  -6233660.918
10 0 59730  53142.000000  0   -1944855.895   -928973.293  -6549322.376
10 0 59730  53262.000000  0   -1383830.642   -230410.051  -6750704.274
10 0 59730  53382.000000  0    -786666.758    462008.975  -6834341.819
10 0 59730  53502.000000  0    -163924.698   1135754.122  -6798796.180
10 0 59730  53622.000000  0     473181.202   1778808.347  -6644676.226
10 0 59730  53742.000000  0    1112978.741   2379876.081  -6374631.224
10 0 59730  53862.000000  0    1743547.929   2928578.957  -5993310.887
10 0 59730  53982.000000  0    2352938.618   3415634.360  -5507293.255
10 0 59730  54102.000000  0    2929394.058   3833013.209  -4924981.340
10 0 59730  54222.000000  0    3461576.469   4174076.420  -4256469.830
10 0 59730  54342.000000  0    3938791.620   4433687.000  -3513380.770
10 0 59730  54462.000000  0    4351207.378   4608294.204  -2708669.566
10 0 59730  54582.000000  0    4690060.211   4695986.844  -1856403.157
10 0 59730  54702.000000  0    4947845.455   4696515.207   -971516.045
10 0 59730  54822.000000  0    5118486.505   4611279.216    -69545.176
10 0 59730  54942.000000  0    5197475.582   4443283.047    833648.493
10 0 59730  55062.000000  0    5181985.342   4197058.197   1722165.561
10 0 59730  55182.000000  0    5070948.819   3878555.355   2580356.810
10 0 59730  55302.000000  0    4865102.258   3495006.648   3393108.513
10 0 59730  55422.000000  0    4566989.900   3054763.183   4146115.673
10 0 59730  55542.000000  0    4180932.613   2567111.984   4826137.644
10 0 59730  55662.000000  0    3712962.307   2042078.159   5421232.317
10 0 59730  55782.000000  0    3170719.575   1490216.310   5920965.104
10 0 59730  55902.000000  0    2563322.210    922395.378   6316586.732
10 0 59730  56022.000000  0    1901206.589    349582.893   6601178.983
10 0 59730  56142.000000  0    1195945.436   -217365.548   6769769.780
10 0 59730  56262.000000  0     460043.360   -767911.408   6819416.763
10 0 59730  56382.000000  0    -293286.101  -1292029.205   6749254.787
10 0 59730  56502.000000  0   -1050357.627  -1780388.583   6560509.443
10 0 59730  56622.000000  0   -1797261.860  -2224520.434   6256475.527
10 0 59730  56742.000000  0   -2520118.440  -2616963.158   5842462.840
10 0 59730  56862.000000  0   -3205333.840  -2951389.919   5325711.991
10 0 59730  56982.000000  0   -3839861.943  -3222714.473   4715274.345
10 0 59730  57102.000000  0   -4411457.037  -3427170.874   4021857.108
10 0 59730  57222.000000  0   -4908915.239  -3562366.530   3257639.024
10 0 59730  57342.000000  0   -5322300.119  -3627307.758   2436058.867
10 0 59730  57462.000000  0   -5643148.501  -3622397.836   1571578.328
10 0 59730  57582.000000  0   -5864649.062  -3549405.636    679422.186
10 0 59730  57702.000000  0   -5981789.252  -3411405.170   -224696.811
10 0 59730  57822.000000  0   -5991467.323  -3212688.717  -1124863.198
10 0 59730  57942.000000  0   -5892565.466  -2958654.577  -2005249.241
10 0 59730  58062.000000  0   -5685980.949  -2655672.290  -2850401.261
10 0 59730  58182.000000  0   -5374617.554  -2310930.579  -3645515.647
10 0 59730  58302.000000  0   -4963337.156  -1932271.377  -4376699.950
10 0 59730  58422.000000  0   -4458873.984  -1528014.562  -5031213.576
10 0 59730  58542.000000  0   -3869713.811  -1106777.527  -5597684.894
10 0 59730  58662.000000  0   -3205940.980   -677293.436  -6066300.093
10 0 59730  58782.000000  0   -2479058.401   -248232.883  -6428962.016
10 0 59730  58902.000000  0   -1701783.926    171967.453  -6679418.546
10 0 59730  59022.000000  0    -887826.761    575265.722  -6813358.798
10 0 59730  59142.000000  0     -51649.495    954164.162  -6828478.937
10 0 59730  59262.000000  0     791782.459   1301844.661  -6724516.841
10 0 59730  59382.000000  0    1627261.612   1612287.679  -6503258.589
10 0 59730  59502.000000  0    2439607.500   1880375.526  -6168511.674
10 0 59730  59622.000000  0    3213938.095   2101976.197  -5726046.097
10 0 59730  59742.000000  0    3935939.070   2274006.846  -5183503.850
10 0 59730  59862.000000  0    4592128.575   2394476.900  -4550279.186
10 0 59730  59982.000000  0    5170113.695   2462509.565  -3837366.701
10 0 59730  60102.000000  0    5658830.978   2478340.497  -3057179.207
10 0 59730  60222.000000  0    6048767.266   2443293.815  -2223339.310
10 0 59730  60342.000000  0    6332156.449   2359735.567  -1350444.042
10 0 59730  60462.000000  0    6503143.468   2231004.603   -453808.013
10 0 59730  60582.000000  0    6557913.767   2061322.606    450810.189
10 0 59730  60702.000000  0    6494780.389   1855684.417   1347492.416
10 0 59730  60822.000000  0    6314231.419   1619733.595   2220447.701
10 0 59730  60942.000000  0    6018933.504   1359623.930   3054300.618
10 0 59730  61062.000000  0    5613689.889   1081871.281   3834369.770
10 0 59730  61182.000000  0    5105355.374    793199.932   4546932.354
10 0 59730  61302.000000  0    4502711.454    500387.719   5179466.986
10 0 59730  61422.000000  0    3816305.533    210113.263   5720874.133
10 0 59730  61542.000000  0    3058255.583    -71191.699   6161667.736
10 0 59730  61662.000000  0    2242028.403   -337479.485   6494134.652
10 0 59730  61782.000000  0    1382196.074   -583212.363   6712464.055
10 0 59730  61902.000000  0     494172.320   -803475.221   6812844.534
10 0 59730  62022.000000  0    -406065.901   -994072.208   6793525.543
10 0 59730  62142.000000  0   -1302265.249  -1151606.116   6654845.088
10 0 59730  62262.000000  0   -2178188.156  -1273538.997   6399223.289
10 0 59730  62382.000000  0   -3017904.905  -1358232.435   6031122.447
10 0 59730  62502.000000  0   -3806083.691  -1404967.939   5556976.426
10 0 59730  62622.000000  0   -4528275.358  -1413948.222   4985085.004
10 0 59730  62742.000000  0   -5171184.812  -1386277.965   4325474.008
10 0 59730  62862.000000  0   -5722923.722  -1323923.846   3589723.056
10 0 59730  62982.000000  0   -6173238.295  -1229654.711   2790764.432
10 0 59730  63102.000000  0   -6513709.412  -1106963.890   1942657.340
10 0 59730  63222.000000  0   -6737921.294   -959975.073   1060337.296
10 0 59730  63342.000000  0   -6841589.214   -793333.412    159345.635
10 0 59730  63462.000000  0   -6822644.533   -612084.800   -744452.568
10 0 59730  63582.000000  0   -6681275.309   -421546.566  -1635157.122
10 0 59730  63702.000000  0   -6419920.469   -227172.821  -2497120.182
10 0 59730  63822.000000  0   -6043221.354    -34418.944  -3315227.100
10 0 59730  63942.000000  0   -5557928.532    151393.194  -4075166.819
10 0 59730  64062.000000  0   -4972767.073    325204.673  -4763682.099
10 0 59730  64182.000000  0   -4298266.457    482340.821  -5368796.506
10 0 59730  64302.000000  0   -3546559.502    618621.702  -5880015.123
10 0 59730  64422.000000  0   -2731154.752    730458.313  -6288496.066
10 0 59730  64542.000000  0   -1866689.196    814934.030  -6587190.890
10 0 59730  64662.000000  0    -968664.722    869870.176  -6770955.797
10 0 59730  64782.000000  0     -53172.703    893874.458  -6836629.632
10 0 59730  64902.000000  0     863386.922    886371.256  -6783081.579
10 0 59730  65022.000000  0    1764591.906    847613.633  -6611231.235
10 0 59730  65142.000000  0    2634286.513    778677.295  -6324034.905
10 0 59730  65262.000000  0    3456866.084    681436.440  -5926439.868
10 0 59730  65382.000000  0    4217553.592    558521.243  -5425307.033
10 0 59730  65502.000000  0    4902664.946    413257.609  -4829303.951
10 0 59730  65622.000000  0    5499860.186    249590.979  -4148766.564
10 0 59730  65742.000000  0    5998373.806     71994.211  -3395529.519
10 0 59730  65862.000000  0    6389219.048   -114638.169  -2582728.610
10 0 59730  65982.000000  0    6665363.290   -305107.550  -1724576.909
10 0 59730  66102.000000  0    6821867.430   -494037.893   -836116.138
10 0 59730  66222.000000  0    6855984.994   -676007.952     67049.945
10 0 59730  66342.000000  0    6767219.187   -845686.698    969035.320
10 0 59730  66462.000000  0    6557334.613   -997968.169   1853959.276
10 0 59730  66582.000000  0    6230324.218  -1128102.110   2706235.467
10 0 59730  66702.000000  0    5792328.748  -1231816.642   3510855.509
10 0 59730  66822.000000  0    5251515.025  -1305430.007   4253658.934
10 0 59730  66942.000000  0    4617914.768  -1345949.710   4921586.418
10 0 59730  67062.000000  0    3903228.324  -1351154.429   5502909.739
10 0 59730  67182.000000  0    3120599.389  -1319658.014   5987435.924
10 0 59730  67302.000000  0    2284364.664  -1250955.229   6366681.286
10 0 59730  67422.000000  0    1409785.912  -1145447.804   6634014.185
10 0 59730  67542.000000  0     512767.157  -1004450.325   6784765.794
10 0 59730  67662.000000  0    -390436.643   -830175.117   6816305.756
10 0 59730  67782.000000  0   -1283513.485   -625697.606   6728083.905
10 0 59730  67902.000000  0   -2150387.338   -394902.207   6521638.993
10 0 59730  68022.000000  0   -2975505.988   -142409.235   6200573.827
10 0 59730  68142.000000  0   -3744120.490    126515.826   5770497.585
10 0 59730  68262.000000  0   -4442552.304    406069.182   5238934.089
10 0 59730  68382.000000  0   -5058442.489    690030.011   4615196.071
10 0 59730  68502.000000  0   -5580978.589    971894.059   3910227.210
10 0 59730  68622.000000  0   -6001093.057   1245017.061   3136412.997
10 0 59730  68742.000000  0   -6311629.971   1502764.828   2307364.647
10 0 59730  68862.000000  0   -6507476.119   1738666.133   1437677.989
10 0 59730  68982.000000  0   -6585653.114   1946565.358    542671.760
99
